[{"OBJECT_NAME":"TRANSPORTER-12 OBJECT BR","OBJECT_ID":"2025-009BR","EPOCH":"2026-03-09T17:25:41.408544","MEAN_MOTION":15.22079833,"ECCENTRICITY":0.00038612,"INCLINATION":97.4001,"RA_OF_ASC_NODE":149.3786,"ARG_OF_PERICENTER":342.5368,"MEAN_ANOMALY":17.5735,"EPHEMERIS_TYPE":0,"CLASSIFICATION_TYPE":"U","NORAD_CAT_ID":62672,"ELEMENT_SET_NO":999,"REV_AT_EPOCH":12125,"BSTAR":0.00024627626,"MEAN_MOTION_DOT":5.568e-5,"MEAN_MOTION_DDOT":0},{"OBJECT_NAME":"OBJECT X","OBJECT_ID":"2025-313X","EPOCH":"2026-03-09T22:11:10.492800","MEAN_MOTION":15.22236742,"ECCENTRICITY":0.00140663,"INCLINATION":97.4034,"RA_OF_ASC_NODE":145.2465,"ARG_OF_PERICENTER":355.6443,"MEAN_ANOMALY":4.4668,"EPHEMERIS_TYPE":0,"CLASSIFICATION_TYPE":"U","NORAD_CAT_ID":67269,"ELEMENT_SET_NO":999,"REV_AT_EPOCH":1085,"BSTAR":0.0006925154,"MEAN_MOTION_DOT":0.00015915,"MEAN_MOTION_DDOT":0}]
